NORAD_CAT_ID,OBJECT_NAME,OBJECT_TYPE,EPOCH,MEAN_MOTION,ECCENTRICITY,INCLINATION,RA_OF_ASC_NODE,ARG_OF_PERICENTER,MEAN_ANOMALY,BSTAR,MEAN_MOTION_DOT,MEAN_MOTION_DDOT,TLE_LINE0,TLE_LINE1,TLE_LINE2,SEMIMAJOR_AXIS,PERIOD,APOGEE,PERIGEE,DECAYED
55631.0,STARLINK-5558,PAYLOAD,2024-06-14 15:01:28,14.98325842,0.0002995,70.0002,0.5444,271.3368,88.7448,4.2532e-05,4.14e-06,0.0,0 STARLINK-5558,1 55631U 23021D   24166.62602965  .00000414  00000-0  42532-4 0  9992,2 55631  70.0002   0.5444 0002995 271.3368  88.7448 14.98325842 73479,6950.206,96.107,574.152,569.989,0.0
55631.0,STARLINK-5558,PAYLOAD,2024-06-14 21:26:00,14.98329898,0.0002994,70.0002,359.8712,271.2382,88.8434,5.0145e-05,5.05e-06,0.0,0 STARLINK-5558,1 55631U 23021D   24166.89306712  .00000505  00000-0  50145-4 0  9992,2 55631  70.0002 359.8712 0002994 271.2382  88.8434 14.98329898 73517,6950.193,96.107,574.139,569.977,0.0
55631.0,STARLINK-5558,PAYLOAD,2024-06-15 13:27:21,14.98338642,0.0002977,70.0002,358.1879,271.3402,88.7416,3.4814e-05,3.23e-06,0.0,0 STARLINK-5558,1 55631U 23021D   24167.56066045  .00000323  00000-0  34814-4 0  9992,2 55631  70.0002 358.1879 0002977 271.3402  88.7416 14.98338642 73615,6950.166,96.106,574.1,569.962,0.0
55631.0,STARLINK-5558,PAYLOAD,2024-06-15 19:51:52,14.98342563,0.0002959,70.0002,357.5146,271.2513,88.8307,5.9528e-05,6.18e-06,0.0,0 STARLINK-5558,1 55631U 23021D   24167.82769562  .00000618  00000-0  59528-4 0  9991,2 55631  70.0002 357.5146 0002959 271.2513  88.8307 14.98342563 73658,6950.154,96.106,574.076,569.962,0.0
55631.0,STARLINK-5558,PAYLOAD,2024-06-16 13:29:22,14.98326947,0.0002759,70.0006,355.6631,272.9283,87.156,-6.5867e-05,-8.79e-06,0.0,0 STARLINK-5558,1 55631U 23021D   24168.56206616 -.00000879  00000-0 -65867-4 0  9993,2 55631  70.0006 355.6631 0002759 272.9283  87.1560 14.98326947 73763,6950.202,96.107,573.985,570.15,0.0
55631.0,STARLINK-5558,PAYLOAD,2024-06-16 21:30:03,14.98324141,0.0002791,70.0006,354.8226,266.4671,93.6169,-7.3224e-05,-9.66e-06,0.0,0 STARLINK-5558,1 55631U 23021D   24168.89586808 -.00000966  00000-0 -73224-4 0  9996,2 55631  70.0006 354.8226 0002791 266.4671  93.6169 14.98324141 73816,6950.211,96.107,574.016,570.136,0.0
55631.0,STARLINK-5558,PAYLOAD,2024-06-17 19:55:55,14.98329824,0.0002723,70.0008,352.4657,260.5618,99.5233,-9.213e-05,-1.192e-05,0.0,0 STARLINK-5558,1 55631U 23021D   24169.83050556 -.00001192  00000-0 -92130-4 0  9996,2 55631  70.0008 352.4657 0002723 260.5618  99.5233 14.98329824 73653,6950.193,96.107,573.951,570.166,0.0
55631.0,STARLINK-5558,PAYLOAD,2024-06-17 21:32:03,14.98328947,0.0002752,70.0007,352.2974,261.2544,98.8304,-9.9441e-05,-1.279e-05,0.0,0 STARLINK-5558,1 55631U 23021D   24169.89726631 -.00001279  00000-0 -99441-4 0  9994,2 55631  70.0007 352.2974 0002752 261.2544  98.8304 14.98328947 73960,6950.196,96.107,573.974,570.148,0.0
55631.0,STARLINK-5558,PAYLOAD,2024-06-18 13:33:24,14.98326137,0.0002989,70.0002,350.6134,265.9796,94.1021,8.6679e-05,9.41e-06,0.0,0 STARLINK-5558,1 55631U 23021D   24170.56486283  .00000941  00000-0  86679-4 0  9998,2 55631  70.0002 350.6134 0002989 265.9796  94.1021 14.98326137 74063,6950.205,96.107,574.147,569.992,0.0
55631.0,STARLINK-5558,PAYLOAD,2024-06-18 19:57:56,14.98329239,0.0003061,69.9999,349.9398,266.9387,93.1422,9.1165e-05,9.95e-06,0.0,0 STARLINK-5558,1 55631U 23021D   24170.83190121  .00000995  00000-0  91165-4 0  9996,2 55631  69.9999 349.9398 0003061 266.9387  93.1422 14.98329239 73808,6950.195,96.107,574.188,569.933,0.0
55631.0,STARLINK-5558,PAYLOAD,2024-06-18 21:34:04,14.98329834,0.0003057,70.0,349.7715,266.9978,93.0831,9.5947e-05,1.052e-05,0.0,0 STARLINK-5558,1 55631U 23021D   24170.89866075  .00001052  00000-0  95947-4 0  9997,2 55631  70.0000 349.7715 0003057 266.9978  93.0831 14.98329834 74115,6950.193,96.107,574.183,569.934,0.0
55631.0,STARLINK-5558,PAYLOAD,2024-06-19 13:35:25,14.98323212,0.000313,69.9996,348.0873,267.5937,92.4863,1.612e-05,9.9e-07,0.0,0 STARLINK-5558,1 55631U 23021D   24171.56626806  .00000099  00000-0  16120-4 0  9994,2 55631  69.9996 348.0873 0003130 267.5937  92.4863 14.98323212 73916,6950.214,96.107,574.254,569.903,0.0
55631.0,STARLINK-5558,PAYLOAD,2024-06-19 21:36:05,14.98325099,0.0003001,70.0003,347.2469,266.6347,93.4469,1.3151e-05,6.4e-07,0.0,0 STARLINK-5558,1 55631U 23021D   24171.90006824  .00000064  00000-0  13151-4 0  9997,2 55631  70.0003 347.2469 0003001 266.6347  93.4469 14.98325099 74269,6950.208,96.107,574.159,569.987,0.0
55631.0,STARLINK-5558,PAYLOAD,2024-06-20 13:37:26,14.98332749,0.0003114,69.9998,345.5617,267.262,92.8183,-8.4779e-06,-1.94e-06,0.0,0 STARLINK-5558,1 55631U 23021D   24172.56766404 -.00000194  00000-0 -84779-5 0  9998,2 55631  69.9998 345.5617 0003114 267.2620  92.8183 14.98332749 74368,6950.184,96.107,574.214,569.885,0.0
55631.0,STARLINK-5558,PAYLOAD,2024-06-20 21:38:06,14.98335542,0.00031,69.9999,344.7201,267.3305,92.75,2.4108e-05,1.95e-06,0.0,0 STARLINK-5558,1 55631U 23021D   24172.90146063  .00000195  00000-0  24108-4 0  9997,2 55631  69.9999 344.7201 0003100 267.3305  92.7500 14.98335542 74114,6950.176,96.107,574.195,569.886,0.0
55631.0,STARLINK-5558,PAYLOAD,2024-06-21 13:39:27,14.98328563,0.0003076,70.0001,343.0379,270.915,89.1656,5.3832e-05,5.49e-06,0.0,0 STARLINK-5558,1 55631U 23021D   24173.56906367  .00000549  00000-0  53832-4 0  9990,2 55631  70.0001 343.0379 0003076 270.9150  89.1656 14.98328563 74510,6950.197,96.107,574.2,569.924,0.0
55631.0,STARLINK-5558,PAYLOAD,2024-06-21 21:40:07,14.98331805,0.0003082,70.0001,342.1963,270.8158,89.2648,6.6905e-05,7.05e-06,0.0,0 STARLINK-5558,1 55631U 23021D   24173.90286111  .00000705  00000-0  66905-4 0  9995,2 55631  70.0001 342.1963 0003082 270.8158  89.2648 14.98331805 74563,6950.187,96.107,574.194,569.91,0.0
55631.0,STARLINK-5558,PAYLOAD,2024-06-22 13:41:28,14.98330427,0.000301,70.0002,340.5131,271.0284,89.053,-4.0855e-05,-5.8e-06,0.0,0 STARLINK-5558,1 55631U 23021D   24174.57046453 -.00000580  00000-0 -40855-4 0  9991,2 55631  70.0002 340.5131 0003010 271.0284  89.0530 14.98330427 74665,6950.192,96.107,574.149,569.965,0.0
55631.0,STARLINK-5558,PAYLOAD,2024-06-22 20:06:00,14.98330137,0.0002936,70.0005,339.8409,267.1948,92.8875,-3.2772e-05,-4.84e-06,0.0,0 STARLINK-5558,1 55631U 23021D   24174.83750416 -.00000484  00000-0 -32772-4 0  9993,2 55631  70.0005 339.8409 0002936 267.1948  92.8875 14.98330137 74703,6950.192,96.107,574.098,570.017,0.0
55631.0,STARLINK-5558,PAYLOAD,2024-06-23 12:07:20,14.98329791,0.0002887,70.0007,338.1573,262.5962,97.4869,-6.2198e-06,-1.67e-06,0.0,0 STARLINK-5558,1 55631U 23021D   24175.50510297 -.00000167  00000-0 -62198-5 0  9993,2 55631  70.0007 338.1573 0002887 262.5962  97.4869 14.98329791 74505,6950.194,96.107,574.065,570.052,0.0
55631.0,STARLINK-5558,PAYLOAD,2024-06-23 13:43:28,14.9832929,0.0002902,70.0006,337.989,262.3823,97.7007,-1.2137e-05,-2.38e-06,0.0,0 STARLINK-5558,1 55631U 23021D   24175.57186341 -.00000238  00000-0 -12137-4 0  9995,2 55631  70.0006 337.9890 0002902 262.3823  97.7007 14.98329290 74810,6950.195,96.107,574.077,570.043,0.0
55631.0,STARLINK-5558,PAYLOAD,2024-06-23 20:08:01,14.98329673,0.0002909,70.0006,337.3156,261.9945,98.0884,-7.3361e-06,-1.81e-06,0.0,0 STARLINK-5558,1 55631U 23021D   24175.83890307 -.00000181  00000-0 -73361-5 0  9992,2 55631  70.0006 337.3156 0002909 261.9945  98.0884 14.98329673 74852,6950.194,96.107,574.081,570.037,0.0
55631.0,STARLINK-5558,PAYLOAD,2024-06-24 12:09:21,14.98331073,0.0003012,70.0003,335.6323,265.4349,94.6466,3.4997e-05,3.25e-06,0.0,0 STARLINK-5558,1 55631U 23021D   24176.50650051  .00000325  00000-0  34997-4 0  9996,2 55631  70.0003 335.6323 0003012 265.4349  94.6466 14.98331073 74652,6950.19,96.107,574.148,569.961,0.0
55631.0,STARLINK-5558,PAYLOAD,2024-06-24 13:45:29,14.98331242,0.000301,70.0004,335.4639,265.3941,94.6874,3.6869e-05,3.47e-06,0.0,0 STARLINK-5558,1 55631U 23021D   24176.57326028  .00000347  00000-0  36869-4 0  9991,2 55631  70.0004 335.4639 0003010 265.3941  94.6874 14.98331242 74961,6950.189,96.107,574.146,569.962,0.0
55631.0,STARLINK-5558,PAYLOAD,2024-06-24 20:10:01,14.98332649,0.0002988,70.0006,334.7909,264.3307,95.7512,5.066e-05,5.12e-06,0.0,0 STARLINK-5558,1 55631U 23021D   24176.84029865  .00000512  00000-0  50660-4 0  9999,2 55631  70.0006 334.7909 0002988 264.3307  95.7512 14.98332649 75002,6950.185,96.107,574.126,569.973,0.0
55631.0,STARLINK-5558,PAYLOAD,2024-06-25 12:11:22,14.98329111,0.0002911,70.0008,333.1078,261.1848,98.8981,5.6853e-06,-2.5e-07,0.0,0 STARLINK-5558,1 55631U 23021D   24177.50790166 -.00000025  00000-0  56853-5 0  9993,2 55631  70.0008 333.1078 0002911 261.1848  98.8981 14.98329111 74806,6950.196,96.107,574.084,570.037,0.0
55631.0,STARLINK-5558,PAYLOAD,2024-06-25 13:47:30,14.98329282,0.0002908,70.0009,332.9394,261.1128,98.9702,7.9797e-06,2e-08,0.0,0 STARLINK-5558,1 55631U 23021D   24177.57466147  .00000002  00000-0  79797-5 0  9995,2 55631  70.0009 332.9394 0002908 261.1128  98.9702 14.98329282 75118,6950.195,96.107,574.081,570.039,0.0
55631.0,STARLINK-5558,PAYLOAD,2024-06-25 20:12:02,14.98330542,0.0002904,70.0009,332.2661,261.0652,99.0178,2.0657e-05,1.54e-06,0.0,0 STARLINK-5558,1 55631U 23021D   24177.84170028  .00000154  00000-0  20657-4 0  9993,2 55631  70.0009 332.2661 0002904 261.0652  99.0178 14.98330542 75159,6950.191,96.107,574.075,570.038,0.0
55631.0,STARLINK-5558,PAYLOAD,2024-06-26 10:37:15,14.98335708,0.000304,70.0005,330.7492,270.0719,90.0092,2.2152e-05,1.71e-06,0.0,0 STARLINK-5558,1 55631U 23021D   24178.44253597  .00000171  00000-0  22152-4 0  9994,2 55631  70.0005 330.7492 0003040 270.0719  90.0092 14.98335708 74947,6950.175,96.107,574.153,569.927,0.0
55631.0,STARLINK-5558,PAYLOAD,2024-06-27 12:15:24,14.98330441,0.0003263,70.0,328.0564,270.2572,89.8213,-1.8292e-05,-3.11e-06,0.0,0 STARLINK-5558,1 55631U 23021D   24179.51069869 -.00000311  00000-0 -18292-4 0  9998,2 55631  70.0000 328.0564 0003263 270.2572  89.8213 14.98330441 75107,6950.192,96.107,574.324,569.789,0.0
